HULIANWANG DIGUI 12A    
1 65995U 25231A   25317.94083907  .00000186  00000+0  23335-3 0  9998
2 65995  50.0063 240.2168 0001084 209.5871 150.4970 13.98297035  4061
HULIANWANG DIGUI 12B    
1 65996U 25231B   25316.94572931  .00000182  00000+0  22460-3 0  9992
2 65996  50.0003 244.2821 0004632 267.9414  92.0958 13.99912148  3920
HULIANWANG DIGUI 12C    
1 65997U 25231C   25317.51171379  .00000181  00000+0  22776-3 0  9997
2 65997  49.9958 241.9517 0000439 335.7161  24.3721 13.98989233  4001
HULIANWANG DIGUI 12D    
1 65998U 25231D   25316.86055969  .00000184  00000+0  22805-3 0  9997
2 65998  50.0003 244.5149 0000616  18.1194 341.9731 13.99349651  3914
HULIANWANG DIGUI 12E    
1 65999U 25231E   25316.72467833  .00000121  00000+0  18258-3 0  9998
2 65999  50.0018 245.1327 0000287 331.9932  28.0955 14.00180423  3897
HULIANWANG DIGUI 12F    
1 66000U 25231F   25317.13850768  .00000180  00000+0  22502-3 0  9993
2 66000  50.0078 243.3316 0000357  29.9054 330.1869 13.99417685  3950
HULIANWANG DIGUI 12G    
1 66001U 25231G   25317.14958389  .00000214  00000+0  24805-3 0  9999
2 66001  50.0041 243.3904 0000803  11.3775 348.7145 13.99591149  3955
HULIANWANG DIGUI 12H    
1 66002U 25231H   25317.86570899  .00000707  00000+0  59028-3 0  9997
2 66002  50.0070 240.5196 0000388 215.5712 144.5165 13.98948659  4054
HULIANWANG DIGUI 12J    
1 66003U 25231J   25317.85921653  .00000129  00000+0  19051-3 0  9995
2 66003  50.0069 240.4833 0001321 337.1202  22.9641 13.99383307  4055
CZ-8A R/B               
1 66004U 25231K   25318.80896882  .00000167  00000+0  11821-3 0  9996
2 66004  50.0034 231.3283 0116683 188.7745 171.1132 14.30039412  4262
STARLINK-34849          
1 66005U 25232A   25318.30006408  .00059962  00000+0  14977-2 0  9991
2 66005  53.1614 281.6805 0001257  82.1062 278.0086 15.39610388  5733
STARLINK-35336          
1 66006U 25232B   25318.83334491  .00084935  00000+0  21109-2 0  9999
2 66006  53.1580 278.8061 0001470  92.7940 164.9917 15.39603689  5054
